{
  "type": "FeatureCollection",
  "name": "Periyar_Lower_Basin_AOI",
  "crs": {
    "type": "name",
    "properties": {
      "name": "urn:ogc:def:crs:OGC:1.3:CRS84"
    }
  },
  "features": [
    {
      "type": "Feature",
      "properties": {
        "id": "AOI_PERIYAR_LOWER_01",
        "name": "Lower Periyar & Aluva-Kochi Urban Corridor Sub-Basin",
        "river_basin": "Periyar River Basin",
        "state": "Kerala",
        "district_primary": "Ernakulam",
        "area_sqkm": 1696.64,
        "bbox_wgs84": [
          76.15,
          9.9,
          76.55,
          10.25
        ],
        "key_towns": [
          "Aluva",
          "Kochi (North)",
          "Kalamassery",
          "Paravur",
          "Perumbavoor",
          "Eloor",
          "Nedumbassery (COK)"
        ],
        "flood_event_validated": "2018 Kerala Monsoon Flood Disaster (August 2018)"
      },
      "geometry": {
        "type": "Polygon",
        "coordinates": [
          [
            [
              76.15,
              9.9
            ],
            [
              76.55,
              9.9
            ],
            [
              76.55,
              10.25
            ],
            [
              76.15,
              10.25
            ],
            [
              76.15,
              9.9
            ]
          ]
        ]
      }
    }
  ]
}